CCSDS_OMM_VERS = 2.0
CREATION_DATE  = 
ORIGINATOR     = 

OBJECT_NAME    = STARLINK-36861
OBJECT_ID      = 2026-037C
CENTER_NAME    = EARTH
REF_FRAME      = TEME
TIME_SYSTEM    = UTC
MEAN_ELEMENT_THEORY = SGP/SGP4

EPOCH          = 2026-03-20T12:00:00.998784
MEAN_MOTION    = 15.67145098
ECCENTRICITY   = .0001252
INCLINATION    = 42.9992
RA_OF_ASC_NODE = 132.5470
ARG_OF_PERICENTER = 273.4581
MEAN_ANOMALY   = 354.5150

EPHEMERIS_TYPE = 0
CLASSIFICATION_TYPE = U
NORAD_CAT_ID   = 67934
ELEMENT_SET_NO = 999
REV_AT_EPOCH   = 493
BSTAR          = -.19749E-1
MEAN_MOTION_DOT = -.1924833E-1
MEAN_MOTION_DDOT = 0

CCSDS_OMM_VERS = 2.0
CREATION_DATE  = 
ORIGINATOR     = 

OBJECT_NAME    = STARLINK-36860
OBJECT_ID      = 2026-037D
CENTER_NAME    = EARTH
REF_FRAME      = TEME
TIME_SYSTEM    = UTC
MEAN_ELEMENT_THEORY = SGP/SGP4

EPOCH          = 2026-03-20T12:00:00.998784
MEAN_MOTION    = 15.59614401
ECCENTRICITY   = .0001489
INCLINATION    = 42.9994
RA_OF_ASC_NODE = 132.8345
ARG_OF_PERICENTER = 299.5906
MEAN_ANOMALY   = 212.4537

EPHEMERIS_TYPE = 0
CLASSIFICATION_TYPE = U
NORAD_CAT_ID   = 67935
ELEMENT_SET_NO = 999
REV_AT_EPOCH   = 493
BSTAR          = -.25535E-1
MEAN_MOTION_DOT = -.1853394E-1
MEAN_MOTION_DDOT = 0

CCSDS_OMM_VERS = 2.0
CREATION_DATE  = 
ORIGINATOR     = 

OBJECT_NAME    = STARLINK-36848
OBJECT_ID      = 2026-037E
CENTER_NAME    = EARTH
REF_FRAME      = TEME
TIME_SYSTEM    = UTC
MEAN_ELEMENT_THEORY = SGP/SGP4

EPOCH          = 2026-03-20T12:00:00.998784
MEAN_MOTION    = 15.57144834
ECCENTRICITY   = .0001521
INCLINATION    = 42.9989
RA_OF_ASC_NODE = 132.9382
ARG_OF_PERICENTER = 288.9164
MEAN_ANOMALY   = 181.2748

EPHEMERIS_TYPE = 0
CLASSIFICATION_TYPE = U
NORAD_CAT_ID   = 67936
ELEMENT_SET_NO = 999
REV_AT_EPOCH   = 493
BSTAR          = -.28377E-1
MEAN_MOTION_DOT = -.1871892E-1
MEAN_MOTION_DDOT = 0

CCSDS_OMM_VERS = 2.0
CREATION_DATE  = 
ORIGINATOR     = 

OBJECT_NAME    = STARLINK-36370
OBJECT_ID      = 2026-037F
CENTER_NAME    = EARTH
REF_FRAME      = TEME
TIME_SYSTEM    = UTC
MEAN_ELEMENT_THEORY = SGP/SGP4

EPOCH          = 2026-03-20T12:00:00.998784
MEAN_MOTION    = 15.60521413
ECCENTRICITY   = .0001124
INCLINATION    = 42.9993
RA_OF_ASC_NODE = 132.7833
ARG_OF_PERICENTER = 285.3518
MEAN_ANOMALY   = 247.6738

EPHEMERIS_TYPE = 0
CLASSIFICATION_TYPE = U
NORAD_CAT_ID   = 67937
ELEMENT_SET_NO = 999
REV_AT_EPOCH   = 493
BSTAR          = -.25279E-1
MEAN_MOTION_DOT = -.1894692E-1
MEAN_MOTION_DDOT = 0

CCSDS_OMM_VERS = 2.0
CREATION_DATE  = 
ORIGINATOR     = 

OBJECT_NAME    = STARLINK-36371
OBJECT_ID      = 2026-037G
CENTER_NAME    = EARTH
REF_FRAME      = TEME
TIME_SYSTEM    = UTC
MEAN_ELEMENT_THEORY = SGP/SGP4

EPOCH          = 2026-03-20T12:00:00.998784
MEAN_MOTION    = 15.64419455
ECCENTRICITY   = .0001239
INCLINATION    = 42.9993
RA_OF_ASC_NODE = 132.5975
ARG_OF_PERICENTER = 279.0232
MEAN_ANOMALY   = 328.0015

EPHEMERIS_TYPE = 0
CLASSIFICATION_TYPE = U
NORAD_CAT_ID   = 67938
ELEMENT_SET_NO = 999
REV_AT_EPOCH   = 493
BSTAR          = -.21916E-1
MEAN_MOTION_DOT = -.1913673E-1
MEAN_MOTION_DDOT = 0

CCSDS_OMM_VERS = 2.0
CREATION_DATE  = 
ORIGINATOR     = 

OBJECT_NAME    = STARLINK-36246
OBJECT_ID      = 2026-037H
CENTER_NAME    = EARTH
REF_FRAME      = TEME
TIME_SYSTEM    = UTC
MEAN_ELEMENT_THEORY = SGP/SGP4

EPOCH          = 2026-03-20T12:00:00.998784
MEAN_MOTION    = 15.57958555
ECCENTRICITY   = .0001347
INCLINATION    = 42.9992
RA_OF_ASC_NODE = 132.8746
ARG_OF_PERICENTER = 287.4318
MEAN_ANOMALY   = 208.2643

EPHEMERIS_TYPE = 0
CLASSIFICATION_TYPE = U
NORAD_CAT_ID   = 67939
ELEMENT_SET_NO = 999
REV_AT_EPOCH   = 484
BSTAR          = -.27738E-1
MEAN_MOTION_DOT = -.1885237E-1
MEAN_MOTION_DDOT = 0

CCSDS_OMM_VERS = 2.0
CREATION_DATE  = 
ORIGINATOR     = 

OBJECT_NAME    = STARLINK-36907
OBJECT_ID      = 2026-037J
CENTER_NAME    = EARTH
REF_FRAME      = TEME
TIME_SYSTEM    = UTC
MEAN_ELEMENT_THEORY = SGP/SGP4

EPOCH          = 2026-03-20T12:00:00.998784
MEAN_MOTION    = 15.69345736
ECCENTRICITY   = .0001379
INCLINATION    = 42.9991
RA_OF_ASC_NODE = 132.3944
ARG_OF_PERICENTER = 275.8224
MEAN_ANOMALY   = 52.4726

EPHEMERIS_TYPE = 0
CLASSIFICATION_TYPE = U
NORAD_CAT_ID   = 67940
ELEMENT_SET_NO = 999
REV_AT_EPOCH   = 493
BSTAR          = -.17959E-1
MEAN_MOTION_DOT = -.1918713E-1
MEAN_MOTION_DDOT = 0

CCSDS_OMM_VERS = 2.0
CREATION_DATE  = 
ORIGINATOR     = 

OBJECT_NAME    = STARLINK-36927
OBJECT_ID      = 2026-037K
CENTER_NAME    = EARTH
REF_FRAME      = TEME
TIME_SYSTEM    = UTC
MEAN_ELEMENT_THEORY = SGP/SGP4

EPOCH          = 2026-03-20T12:00:00.998784
MEAN_MOTION    = 15.66544299
ECCENTRICITY   = .0001354
INCLINATION    = 42.9988
RA_OF_ASC_NODE = 132.4576
ARG_OF_PERICENTER = 276.6867
MEAN_ANOMALY   = 26.1850

EPHEMERIS_TYPE = 0
CLASSIFICATION_TYPE = U
NORAD_CAT_ID   = 67941
ELEMENT_SET_NO = 999
REV_AT_EPOCH   = 493
BSTAR          = -.20209E-1
MEAN_MOTION_DOT = -.1922216E-1
MEAN_MOTION_DDOT = 0

CCSDS_OMM_VERS = 2.0
CREATION_DATE  = 
ORIGINATOR     = 

OBJECT_NAME    = STARLINK-36914
OBJECT_ID      = 2026-037L
CENTER_NAME    = EARTH
REF_FRAME      = TEME
TIME_SYSTEM    = UTC
MEAN_ELEMENT_THEORY = SGP/SGP4

EPOCH          = 2026-03-20T12:00:00.998784
MEAN_MOTION    = 15.73533570
ECCENTRICITY   = .0001406
INCLINATION    = 42.9991
RA_OF_ASC_NODE = 132.3217
ARG_OF_PERICENTER = 283.5718
MEAN_ANOMALY   = 74.2108

EPHEMERIS_TYPE = 0
CLASSIFICATION_TYPE = U
NORAD_CAT_ID   = 67942
ELEMENT_SET_NO = 999
REV_AT_EPOCH   = 493
BSTAR          = -.15183E-1
MEAN_MOTION_DOT = -.1898625E-1
MEAN_MOTION_DDOT = 0

CCSDS_OMM_VERS = 2.0
CREATION_DATE  = 
ORIGINATOR     = 

OBJECT_NAME    = STARLINK-36851
OBJECT_ID      = 2026-037M
CENTER_NAME    = EARTH
REF_FRAME      = TEME
TIME_SYSTEM    = UTC
MEAN_ELEMENT_THEORY = SGP/SGP4

EPOCH          = 2026-03-20T12:00:00.998784
MEAN_MOTION    = 15.67532446
ECCENTRICITY   = .000121
INCLINATION    = 42.9992
RA_OF_ASC_NODE = 132.4581
ARG_OF_PERICENTER = 273.3506
MEAN_ANOMALY   = 29.4395

EPHEMERIS_TYPE = 0
CLASSIFICATION_TYPE = U
NORAD_CAT_ID   = 67943
ELEMENT_SET_NO = 999
REV_AT_EPOCH   = 493
BSTAR          = -.19418E-1
MEAN_MOTION_DOT = -.1923243E-1
MEAN_MOTION_DDOT = 0

CCSDS_OMM_VERS = 2.0
CREATION_DATE  = 
ORIGINATOR     = 

OBJECT_NAME    = STARLINK-36892
OBJECT_ID      = 2026-037N
CENTER_NAME    = EARTH
REF_FRAME      = TEME
TIME_SYSTEM    = UTC
MEAN_ELEMENT_THEORY = SGP/SGP4

EPOCH          = 2026-03-20T12:00:00.998784
MEAN_MOTION    = 15.68333630
ECCENTRICITY   = .0001391
INCLINATION    = 42.9990
RA_OF_ASC_NODE = 132.4130
ARG_OF_PERICENTER = 276.1281
MEAN_ANOMALY   = 44.9584

EPHEMERIS_TYPE = 0
CLASSIFICATION_TYPE = U
NORAD_CAT_ID   = 67944
ELEMENT_SET_NO = 999
REV_AT_EPOCH   = 493
BSTAR          = -.18744E-1
MEAN_MOTION_DOT = -.1919655E-1
MEAN_MOTION_DDOT = 0

CCSDS_OMM_VERS = 2.0
CREATION_DATE  = 
ORIGINATOR     = 

OBJECT_NAME    = STARLINK-36908
OBJECT_ID      = 2026-037P
CENTER_NAME    = EARTH
REF_FRAME      = TEME
TIME_SYSTEM    = UTC
MEAN_ELEMENT_THEORY = SGP/SGP4

EPOCH          = 2026-03-20T12:00:00.998784
MEAN_MOTION    = 15.69175087
ECCENTRICITY   = .0001328
INCLINATION    = 42.9990
RA_OF_ASC_NODE = 132.3668
ARG_OF_PERICENTER = 279.9121
MEAN_ANOMALY   = 59.3055

EPHEMERIS_TYPE = 0
CLASSIFICATION_TYPE = U
NORAD_CAT_ID   = 67945
ELEMENT_SET_NO = 999
REV_AT_EPOCH   = 493
BSTAR          = -.18117E-1
MEAN_MOTION_DOT = -.1921388E-1
MEAN_MOTION_DDOT = 0

