STARLINK-36861          
1 67934U 26037C   26079.50001156 -.01924833  00000+0 -19749-1 0  9991
2 67934  42.9992 132.5470 0001252 273.4581 354.5150 15.67145098  4933
STARLINK-36860          
1 67935U 26037D   26079.50001156 -.01853394  00000+0 -25535-1 0  9995
2 67935  42.9994 132.8345 0001489 299.5906 212.4537 15.59614401  4933
STARLINK-36848          
1 67936U 26037E   26079.50001156 -.01871892  00000+0 -28377-1 0  9996
2 67936  42.9989 132.9382 0001521 288.9164 181.2748 15.57144834  4938
STARLINK-36370          
1 67937U 26037F   26079.50001156 -.01894692  00000+0 -25279-1 0  9998
2 67937  42.9993 132.7833 0001124 285.3518 247.6738 15.60521413  4938
STARLINK-36371          
1 67938U 26037G   26079.50001156 -.01913673  00000+0 -21916-1 0  9994
2 67938  42.9993 132.5975 0001239 279.0232 328.0015 15.64419455  4932
STARLINK-36246          
1 67939U 26037H   26079.50001156 -.01885237  00000+0 -27738-1 0  9997
2 67939  42.9992 132.8746 0001347 287.4318 208.2643 15.57958555  4846
STARLINK-36907          
1 67940U 26037J   26079.50001156 -.01918713  00000+0 -17959-1 0  9999
2 67940  42.9991 132.3944 0001379 275.8224  52.4726 15.69345736  4939
STARLINK-36927          
1 67941U 26037K   26079.50001156 -.01922216  00000+0 -20209-1 0  9995
2 67941  42.9988 132.4576 0001354 276.6867  26.1850 15.66544299  4931
STARLINK-36914          
1 67942U 26037L   26079.50001156 -.01898625  00000+0 -15183-1 0  9997
2 67942  42.9991 132.3217 0001406 283.5718  74.2108 15.73533570  4935
STARLINK-36851          
1 67943U 26037M   26079.50001156 -.01923243  00000+0 -19418-1 0  9998
2 67943  42.9992 132.4581 0001210 273.3506  29.4395 15.67532446  4931
STARLINK-36892          
1 67944U 26037N   26079.50001156 -.01919655  00000+0 -18744-1 0  9992
2 67944  42.9990 132.4130 0001391 276.1281  44.9584 15.68333630  4938
STARLINK-36908          
1 67945U 26037P   26079.50001156 -.01921388  00000+0 -18117-1 0  9993
2 67945  42.9990 132.3668 0001328 279.9121  59.3055 15.69175087  4932
